GOES 4                  
1 11964U 80074A   24111.82250965 -.00000237  00000+0  00000+0 0  9997
2 11964   9.7015 309.1612 0033253  91.3316  91.8490  0.99233798119626
